GLOBALSTAR M068 [-]     
1 32266U 07048D   23308.71125449 -.00000045  00000+0  32619-3 0  9990
2 32266  51.9889 302.1407 0000583 301.6907 229.2987 12.62770156742953
GLOBALSTAR M079 [+]     
1 37188U 10054A   23308.87057472 -.00000103  00000+0  62715-5 0  9993
2 37188  52.0014 136.8050 0001167  90.8252  17.4267 12.62269642601908
GLOBALSTAR M074 [+]     
1 37189U 10054B   23308.79683118 -.00000104  00000+0 -30815-5 0  9995
2 37189  51.9992 136.4427 0000969  94.9400 278.5508 12.62271744602506
GLOBALSTAR M076 [+]     
1 37190U 10054C   23308.82309969 -.00000083  00000+0  11602-3 0  9996
2 37190  52.0003 136.4813 0001413 110.7957 261.3436 12.62263403602223
GLOBALSTAR M077 [+]     
1 37191U 10054D   23308.65214747 -.00000105  00000+0 -41121-5 0  9994
2 37191  52.0058  93.6861 0000832 109.4795 264.6330 12.62267988602579
GLOBALSTAR M075 [+]     
1 37192U 10054E   23308.91617852 -.00000096  00000+0  45688-4 0  9997
2 37192  51.9933 178.7864 0001106  77.5583 296.4024 12.62255416601466
GLOBALSTAR M073 [+]     
1 37193U 10054F   23308.67802921 -.00000104  00000+0 -12102-5 0  9991
2 37193  52.0048  92.8734 0000897 106.9345 266.0150 12.62269137603265
GLOBALSTAR M083 [+]     
1 37739U 11033A   23308.53270659 -.00000088  00000+0  90452-4 0  9990
2 37739  51.9879  42.8535 0000570  86.7536 286.8142 12.62262474572263
GLOBALSTAR M088 [+]     
1 37740U 11033B   23308.77870417 -.00000074  00000+0  16535-3 0  9990
2 37740  51.9741 308.0970 0000632  52.1579 119.0850 12.62267154567836
GLOBALSTAR M091 [+]     
1 37741U 11033C   23308.39598128 -.00000074  00000+0  16710-3 0  9990
2 37741  51.9999 271.7609 0000876  50.0007 120.4810 12.62267979568579
GLOBALSTAR M085 [+]     
1 37742U 11033D   23308.91613383 -.00000076  00000+0  15465-3 0  9998
2 37742  51.9864 221.7382 0001023  58.8327  16.9956 12.62264719569154
GLOBALSTAR M081 [+]     
1 37743U 11033E   23308.94311493 -.00000080  00000+0  13186-3 0  9992
2 37743  51.9956 224.0785 0001138  67.1531  11.3075 12.62266274569303
GLOBALSTAR M089 [+]     
1 37744U 11033F   23308.96875424 -.00000093  00000+0  62833-4 0  9992
2 37744  51.9916 178.3402 0000992  94.8955 280.0811 12.62269205570156
GLOBALSTAR M084 [+]     
1 38040U 11080A   23308.58582439 -.00000091  00000+0  68610-4 0  9990
2 38040  52.0026  46.4788 0000739 133.0786 240.0162 12.62267214548360
GLOBALSTAR M080 [+]     
1 38041U 11080B   23308.57953035 -.00000096  00000+0  42491-4 0  9998
2 38041  52.0077  47.8967 0000975 131.3208 333.3009 12.62265707548207
GLOBALSTAR M082 [+]     
1 38042U 11080C   23308.92394838 -.00000079  00000+0  13819-3 0  9990
2 38042  52.0102   2.2335 0000486  14.6592 156.9547 12.62267502548950
GLOBALSTAR M092 [+]     
1 38043U 11080D   23308.88989174 -.00000101  00000+0  14487-4 0  9998
2 38043  52.0072  92.6776 0000790 128.6174   8.8781 12.62273851547407
GLOBALSTAR M090 [+]     
1 38044U 11080E   23308.87083877 -.00000078  00000+0  14440-3 0  9994
2 38044  51.9911 356.9636 0000399  57.1143 113.9975 12.62262940549060
GLOBALSTAR M086 [+]     
1 38045U 11080F   23308.89754564 -.00000082  00000+0  12220-3 0  9994
2 38045  51.9921 357.3887 0001342  93.2313  78.2420 12.62263849549016
GLOBALSTAR M097 [+]     
1 39072U 13005A   23308.64881052 -.00000078  00000+0  14392-3 0  9997
2 39072  52.0048 272.0929 0000861  51.5421 308.5523 12.62272276496233
GLOBALSTAR M093 [+]     
1 39073U 13005B   23308.85986288 -.00000076  00000+0  15501-3 0  9999
2 39073  51.9810 265.6981 0001104  51.4308 308.6657 12.62268311496334
GLOBALSTAR M094 [+]     
1 39074U 13005C   23308.93909899 -.00000088  00000+0  90832-4 0  9996
2 39074  51.9944 179.2501 0001147  76.2867 283.8127 12.62269438497836
GLOBALSTAR M096 [+]     
1 39075U 13005D   23308.95229220 -.00000076  00000+0  15372-3 0  9994
2 39075  52.0072 227.2623 0001092  59.9458 300.1517 12.62265693496758
GLOBALSTAR M078 [+]     
1 39076U 13005E   23308.68816496 -.00000085  00000+0  10218-3 0  9996
2 39076  51.9881 313.3787 0000825 335.0454  25.0372 12.62262822495347
GLOBALSTAR M095 [+]     
1 39077U 13005F   23308.71474906 -.00000084  00000+0  10771-3 0  9990
2 39077  51.9807 310.7890 0000832  14.5374 345.5516 12.62270310495206
GLOBALSTAR M087 [+]     
1 52888U 22064A   23308.29495841 -.00000079  00000+0  94625-4 0  9999
2 52888  51.9759 276.0456 0009542 148.0207 212.1274 13.37556806 67298
